{"type": "FeatureCollection", "features": [ {"type": "Feature", "properties": {"norad_id": 40664, "name": "SKY MEXICO-1", "group": "intelsat", "lat": 0.009818077947049116, "lon": -152.65762694596876, "alt_km": 35782.33439636813, "timestamp": "2025-12-13T13:34:34.742380+00:00", "meta": {"OBJECT_NAME": "SKY MEXICO-1", "OBJECT_ID": "2015-026B", "EPOCH": "2025-12-12T23:22:45.143040", "MEAN_MOTION": 1.00272325, "ECCENTRICITY": 0.00025316, "INCLINATION": 0.0372, "RA_OF_ASC_NODE": 79.4517, "ARG_OF_PERICENTER": 198.1354, "MEAN_ANOMALY": 76.2496, "EPHEMERIS_TYPE": 0, "CLASSIFICATION_TYPE": "U", "NORAD_CAT_ID": 40664, "ELEMENT_SET_NO": 999, "REV_AT_EPOCH": 3858, "BSTAR": 0, "MEAN_MOTION_DOT": -2.22e-06, "MEAN_MOTION_DDOT": 0}, "tle": {"line1": "1 40664U 15026B   25346.97413360 -.00000222  00000+0  00000+0 0  9992", "line2": "2 40664   0.0372  79.4517 0002531 198.1354  76.2496  1.00272325 38589"}}, "geometry": {"type": "Point", "coordinates": [-152.65762694596876, 0.009818077947049116]}}, {"type": "Feature", "properties": {"norad_id": 40874, "name": "INTELSAT 34 (IS-34)", "group": "intelsat", "lat": -0.031560806435016166, "lon": -129.36416083379024, "alt_km": 35784.98422542952, "timestamp": "2025-12-13T13:34:34.742390+00:00", "meta": {"OBJECT_NAME": "INTELSAT 34 (IS-34)", "OBJECT_ID": "2015-039A", "EPOCH": "2025-12-12T13:12:57.677184", "MEAN_MOTION": 1.00271609, "ECCENTRICITY": 6.184e-05, "INCLINATION": 0.0135, "RA_OF_ASC_NODE": 325.751, "ARG_OF_PERICENTER": 204.0245, "MEAN_ANOMALY": 54.4583, "EPHEMERIS_TYPE": 0, "CLASSIFICATION_TYPE": "U", "NORAD_CAT_ID": 40874, "ELEMENT_SET_NO": 999, "REV_AT_EPOCH": 3775, "BSTAR": 0, "MEAN_MOTION_DOT": -2.74e-06, "MEAN_MOTION_DDOT": 0}, "tle": {"line1": "1 40874U 15039A   25346.55066756 -.00000274  00000+0  00000+0 0  9993", "line2": "2 40874   0.0135 325.7510 0000618 204.0245  54.4583  1.00271609 37756"}}, "geometry": {"type": "Point", "coordinates": [-129.36416083379024, -0.031560806435016166]}}, {"type": "Feature", "properties": {"norad_id": 41581, "name": "INTELSAT 31 (IS-31)", "group": "intelsat", "lat": -0.02424910316994324, "lon": -168.93395988690173, "alt_km": 35778.1748041137, "timestamp": "2025-12-13T13:34:34.742401+00:00", "meta": {"OBJECT_NAME": "INTELSAT 31 (IS-31)", "OBJECT_ID": "2016-035A", "EPOCH": "2025-12-12T21:35:22.164576", "MEAN_MOTION": 1.00271383, "ECCENTRICITY": 0.00020554, "INCLINATION": 0.0183, "RA_OF_ASC_NODE": 268.2699, "ARG_OF_PERICENTER": 304.2994, "MEAN_ANOMALY": 98.0553, "EPHEMERIS_TYPE": 0, "CLASSIFICATION_TYPE": "U", "NORAD_CAT_ID": 41581, "ELEMENT_SET_NO": 999, "REV_AT_EPOCH": 3481, "BSTAR": 0, "MEAN_MOTION_DOT": -1.38e-06, "MEAN_MOTION_DDOT": 0}, "tle": {"line1": "1 41581U 16035A   25346.89956209 -.00000138  00000+0  00000+0 0  9993", "line2": "2 41581   0.0183 268.2699 0002055 304.2994  98.0553  1.00271383 34819"}}, "geometry": {"type": "Point", "coordinates": [-168.93395988690173, -0.02424910316994324]}}, {"type": "Feature", "properties": {"norad_id": 41747, "name": "INTELSAT 36 (IS-36)", "group": "intelsat", "lat": 0.0004408076977403706, "lon": -5.376900911400444, "alt_km": 35780.47472218312, "timestamp": "2025-12-13T13:34:34.742411+00:00", "meta": {"OBJECT_NAME": "INTELSAT 36 (IS-36)", "OBJECT_ID": "2016-053A", "EPOCH": "2025-12-12T20:39:14.930208", "MEAN_MOTION": 1.00270684, "ECCENTRICITY": 0.00015547, "INCLINATION": 0.0128, "RA_OF_ASC_NODE": 7.6743, "ARG_OF_PERICENTER": 321.5559, "MEAN_ANOMALY": 130.8681, "EPHEMERIS_TYPE": 0, "CLASSIFICATION_TYPE": "U", "NORAD_CAT_ID": 41747, "ELEMENT_SET_NO": 999, "REV_AT_EPOCH": 3408, "BSTAR": 0, "MEAN_MOTION_DOT": -1.2e-07, "MEAN_MOTION_DDOT": 0}, "tle": {"line1": "1 41747U 16053A   25346.86058947 -.00000012  00000+0  00000+0 0  9997", "line2": "2 41747   0.0128   7.6743 0001554 321.5559 130.8681  1.00270684 34088"}}, "geometry": {"type": "Point", "coordinates": [-5.376900911400444, 0.0004408076977403706]}}, {"type": "Feature", "properties": {"norad_id": 41945, "name": "INTELSAT 32E (IS-32E)", "group": "intelsat", "lat": -0.009424763556529747, "lon": -117.0483887516292, "alt_km": 35786.435242786974, "timestamp": "2025-12-13T13:34:34.742421+00:00", "meta": {"OBJECT_NAME": "INTELSAT 32E (IS-32E)", "OBJECT_ID": "2017-007B", "EPOCH": "2025-12-12T11:33:44.679168", "MEAN_MOTION": 1.00273861, "ECCENTRICITY": 3.861e-05, "INCLINATION": 0.0354, "RA_OF_ASC_NODE": 82.6036, "ARG_OF_PERICENTER": 280.6351, "MEAN_ANOMALY": 208.4399, "EPHEMERIS_TYPE": 0, "CLASSIFICATION_TYPE": "U", "NORAD_CAT_ID": 41945, "ELEMENT_SET_NO": 999, "REV_AT_EPOCH": 3235, "BSTAR": 0, "MEAN_MOTION_DOT": -2.58e-06, "MEAN_MOTION_DDOT": 0}, "tle": {"line1": "1 41945U 17007B   25346.48176712 -.00000258  00000+0  00000+0 0  9998", "line2": "2 41945   0.0354  82.6036 0000386 280.6351 208.4399  1.00273861 32350"}}, "geometry": {"type": "Point", "coordinates": [-117.0483887516292, -0.009424763556529747]}}, {"type": "Feature", "properties": {"norad_id": 42818, "name": "INTELSAT 35E (IS-35E)", "group": "intelsat", "lat": -0.03402557323536489, "lon": -108.36587764139485, "alt_km": 35777.049180734786, "timestamp": "2025-12-13T13:34:34.742432+00:00", "meta": {"OBJECT_NAME": "INTELSAT 35E (IS-35E)", "OBJECT_ID": "2017-041A", "EPOCH": "2025-12-12T23:35:21.435072", "MEAN_MOTION": 1.00273324, "ECCENTRICITY": 0.00020745, "INCLINATION": 0.0188, "RA_OF_ASC_NODE": 9.0506, "ARG_OF_PERICENTER": 252.2243, "MEAN_ANOMALY": 139.988, "EPHEMERIS_TYPE": 0, "CLASSIFICATION_TYPE": "U", "NORAD_CAT_ID": 42818, "ELEMENT_SET_NO": 999, "REV_AT_EPOCH": 3094, "BSTAR": 0, "MEAN_MOTION_DOT": -2.25e-06, "MEAN_MOTION_DDOT": 0}, "tle": {"line1": "1 42818U 17041A   25346.98288698 -.00000225  00000+0  00000+0 0  9992", "line2": "2 42818   0.0188   9.0506 0002074 252.2243 139.9880  1.00273324 30941"}}, "geometry": {"type": "Point", "coordinates": [-108.36587764139485, -0.03402557323536489]}}, {"type": "Feature", "properties": {"norad_id": 42950, "name": "INTELSAT 37E (IS-37E)", "group": "intelsat", "lat": -0.03592291050978986, "lon": -91.85562421742308, "alt_km": 35773.43147229653, "timestamp": "2025-12-13T13:34:34.742442+00:00", "meta": {"OBJECT_NAME": "INTELSAT 37E (IS-37E)", "OBJECT_ID": "2017-059A", "EPOCH": "2025-12-12T23:40:05.981376", "MEAN_MOTION": 1.0027224, "ECCENTRICITY": 0.00030153, "INCLINATION": 0.0186, "RA_OF_ASC_NODE": 1.3227, "ARG_OF_PERICENTER": 256.2051, "MEAN_ANOMALY": 161.426, "EPHEMERIS_TYPE": 0, "CLASSIFICATION_TYPE": "U", "NORAD_CAT_ID": 42950, "ELEMENT_SET_NO": 999, "REV_AT_EPOCH": 3019, "BSTAR": 0, "MEAN_MOTION_DOT": -1.28e-06, "MEAN_MOTION_DDOT": 0}, "tle": {"line1": "1 42950U 17059A   25346.98618034 -.00000128  00000+0  00000+0 0  9991", "line2": "2 42950   0.0186   1.3227 0003015 256.2051 161.4260  1.00272240 30193"}}, "geometry": {"type": "Point", "coordinates": [-91.85562421742308, -0.03592291050978986]}}, {"type": "Feature", "properties": {"norad_id": 43632, "name": "AZERSPACE 2 (IS-38)", "group": "intelsat", "lat": -0.0016834209020229812, "lon": -28.74126295903831, "alt_km": 35783.61888692485, "timestamp": "2025-12-13T13:34:34.742453+00:00", "meta": {"OBJECT_NAME": "AZERSPACE 2 (IS-38)", "OBJECT_ID": "2018-074A", "EPOCH": "2025-12-12T22:15:18.338976", "MEAN_MOTION": 1.00271261, "ECCENTRICITY": 0.00013581, "INCLINATION": 0.0136, "RA_OF_ASC_NODE": 334.9865, "ARG_OF_PERICENTER": 292.4817, "MEAN_ANOMALY": 193.3376, "EPHEMERIS_TYPE": 0, "CLASSIFICATION_TYPE": "U", "NORAD_CAT_ID": 43632, "ELEMENT_SET_NO": 999, "REV_AT_EPOCH": 2658, "BSTAR": 0, "MEAN_MOTION_DOT": 1.49e-06, "MEAN_MOTION_DDOT": 0}, "tle": {"line1": "1 43632U 18074A   25346.92729559  .00000149  00000+0  00000+0 0  9998", "line2": "2 43632   0.0136 334.9865 0001358 292.4817 193.3376  1.00271261 26581"}}, "geometry": {"type": "Point", "coordinates": [-28.74126295903831, -0.0016834209020229812]}}, {"type": "Feature", "properties": {"norad_id": 43633, "name": "HORIZONS-3E", "group": "intelsat", "lat": -0.018230533186131208, "lon": 95.12087978114545, "alt_km": 35791.818080499885, "timestamp": "2025-12-13T13:34:34.742463+00:00", "meta": {"OBJECT_NAME": "HORIZONS-3E", "OBJECT_ID": "2018-074B", "EPOCH": "2025-12-12T13:12:38.637216", "MEAN_MOTION": 1.0026807, "ECCENTRICITY": 0.00011684, "INCLINATION": 0.0433, "RA_OF_ASC_NODE": 179.7044, "ARG_OF_PERICENTER": 112.3484, "MEAN_ANOMALY": 156.6007, "EPHEMERIS_TYPE": 0, "CLASSIFICATION_TYPE": "U", "NORAD_CAT_ID": 43633, "ELEMENT_SET_NO": 999, "REV_AT_EPOCH": 2646, "BSTAR": 0, "MEAN_MOTION_DOT": -2e-07, "MEAN_MOTION_DDOT": 0}, "tle": {"line1": "1 43633U 18074B   25346.55044719 -.00000020  00000+0  00000+0 0  9995", "line2": "2 43633   0.0433 179.7044 0001168 112.3484 156.6007  1.00268070 26469"}}, "geometry": {"type": "Point", "coordinates": [95.12087978114545, -0.018230533186131208]}}, {"type": "Feature", "properties": {"norad_id": 44333, "name": "AT&T T-16", "group": "intelsat", "lat": 0.013330601494284895, "lon": -174.71989317439855, "alt_km": 35783.20441903975, "timestamp": "2025-12-13T13:34:34.742474+00:00", "meta": {"OBJECT_NAME": "AT&T T-16", "OBJECT_ID": "2019-034A", "EPOCH": "2025-12-12T21:33:37.332000", "MEAN_MOTION": 1.00273494, "ECCENTRICITY": 7.506e-05, "INCLINATION": 0.0298, "RA_OF_ASC_NODE": 78.3043, "ARG_OF_PERICENTER": 66.9673, "MEAN_ANOMALY": 159.1096, "EPHEMERIS_TYPE": 0, "CLASSIFICATION_TYPE": "U", "NORAD_CAT_ID": 44333, "ELEMENT_SET_NO": 999, "REV_AT_EPOCH": 2376, "BSTAR": 0, "MEAN_MOTION_DOT": -1.03e-06, "MEAN_MOTION_DDOT": 0}, "tle": {"line1": "1 44333U 19034A   25346.89834875 -.00000103  00000+0  00000+0 0  9999", "line2": "2 44333   0.0298  78.3043 0000750  66.9673 159.1096  1.00273494 23761"}}, "geometry": {"type": "Point", "coordinates": [-174.71989317439855, 0.013330601494284895]}}]}